start=new Date('2023-03-12T00:00:00.000Z').valueOf();
sats=[{"RA_OF_ASC_NODE":"290.7730","MEAN_ELEMENT_THEORY":"SGP4","SEMIMAJOR_AXIS":"6925.348","NORAD_CAT_ID":"45684","MEAN_MOTION_DOT":"0.00005646","TIME_SYSTEM":"UTC","DECAY_DATE":null,"RCS_SIZE":"LARGE","ARG_OF_PERICENTER":"101.4681","ELEMENT_SET_NO":"999","APOAPSIS":"548.047","FILE":"3857714","MEAN_ANOMALY":"258.6443","MEAN_MOTION_DDOT":"0.0000000000000","PERIAPSIS":"546.379","LAUNCH_DATE":"2020-06-04","PERIOD":"95.592","MEAN_MOTION":"15.06400212","BSTAR":"0.00039763000000","INCLINATION":"53.0526","OBJECT_TYPE":"PAYLOAD","ECCENTRICITY":"0.00012040","REF_FRAME":"TEME","COUNTRY_CODE":"US","EPOCH":"2023-03-11T00:32:20.131872","TLE_LINE1":"1 45684U 20035AD  23070.02245523  .00005646  00000-0  39763-3 0  9994","TLE_LINE2":"2 45684  53.0526 290.7730 0001204 101.4681 258.6443 15.06400212153479","GP_ID":"227863719","OBJECT_ID":"2020-035AD","EPHEMERIS_TYPE":"0","OBJECT_NAME":"STARLINK-1401","CLASSIFICATION_TYPE":"U","SITE":"AFETR","REV_AT_EPOCH":"15347","CENTER_NAME":"EARTH"},{"CLASSIFICATION_TYPE":"U","SITE":"AFETR","CENTER_NAME":"EARTH","REV_AT_EPOCH":"15397","GP_ID":"227886205","OBJECT_NAME":"STARLINK-1402","EPHEMERIS_TYPE":"0","OBJECT_ID":"2020-035AE","TLE_LINE1":"1 45685U 20035AE  23070.61589430  .00001392  00000-0  11232-3 0  9993","TLE_LINE2":"2 45685  53.0517 288.1007 0001199  72.6540 287.4580 15.06400098153973","REF_FRAME":"TEME","COUNTRY_CODE":"US","EPOCH":"2023-03-11T14:46:53.267520","BSTAR":"0.00011232000000","INCLINATION":"53.0517","ECCENTRICITY":"0.00011990","OBJECT_TYPE":"PAYLOAD","PERIAPSIS":"546.383","MEAN_MOTION_DDOT":"0.0000000000000","LAUNCH_DATE":"2020-06-04","MEAN_MOTION":"15.06400098","PERIOD":"95.592","RCS_SIZE":"LARGE","DECAY_DATE":null,"ELEMENT_SET_NO":"999","ARG_OF_PERICENTER":"72.6540","FILE":"3857847","MEAN_ANOMALY":"287.4580","APOAPSIS":"548.044","RA_OF_ASC_NODE":"288.1007","MEAN_ELEMENT_THEORY":"SGP4","MEAN_MOTION_DOT":"0.00001392","NORAD_CAT_ID":"45685","TIME_SYSTEM":"UTC","SEMIMAJOR_AXIS":"6925.348"},{"PERIOD":"95.593","MEAN_MOTION":"15.06392370","LAUNCH_DATE":"2020-06-04","MEAN_MOTION_DDOT":"0.0000000000000","PERIAPSIS":"546.426","OBJECT_TYPE":"PAYLOAD","ECCENTRICITY":"0.00011710","INCLINATION":"53.0532","BSTAR":"0.00040020000000","SEMIMAJOR_AXIS":"6925.372","MEAN_MOTION_DOT":"0.00005683","NORAD_CAT_ID":"45686","TIME_SYSTEM":"UTC","MEAN_ELEMENT_THEORY":"SGP4","RA_OF_ASC_NODE":"290.8219","APOAPSIS":"548.048","FILE":"3857581","MEAN_ANOMALY":"282.1600","ARG_OF_PERICENTER":"77.9520","ELEMENT_SET_NO":"999","DECAY_DATE":null,"RCS_SIZE":"LARGE","OBJECT_ID":"2020-035AF","OBJECT_NAME":"STARLINK-1404","EPHEMERIS_TYPE":"0","GP_ID":"227853147","REV_AT_EPOCH":"15388","CENTER_NAME":"EARTH","SITE":"AFETR","CLASSIFICATION_TYPE":"U","EPOCH":"2023-03-11T00:16:25.178592","COUNTRY_CODE":"US","REF_FRAME":"TEME","TLE_LINE2":"2 45686  53.0532 290.8219 0001171  77.9520 282.1600 15.06392370153880","TLE_LINE1":"1 45686U 20035AF  23070.01140253  .00005683  00000-0  40020-3 0  9998"},{"OBJECT_ID":"2020-035AH","OBJECT_NAME":"STARLINK-1408","EPHEMERIS_TYPE":"0","GP_ID":"227854395","CLASSIFICATION_TYPE":"U","REV_AT_EPOCH":"15396","CENTER_NAME":"EARTH","SITE":"AFETR","COUNTRY_CODE":"US","REF_FRAME":"TEME","EPOCH":"2023-03-10T23:34:04.554624","TLE_LINE1":"1 45688U 20035AH  23069.98199716 -.00000229  00000-0  43087-5 0  9992","TLE_LINE2":"2 45688  53.0536 284.4989 0004462 207.5150 152.5609 15.18220826153962","MEAN_MOTION_DDOT":"0.0000000000000","PERIAPSIS":"508.146","PERIOD":"94.848","MEAN_MOTION":"15.18220826","LAUNCH_DATE":"2020-06-04","INCLINATION":"53.0536","BSTAR":"0.00000430870000","OBJECT_TYPE":"PAYLOAD","ECCENTRICITY":"0.00044620","RA_OF_ASC_NODE":"284.4989","SEMIMAJOR_AXIS":"6889.355","MEAN_MOTION_DOT":"-0.00000229","NORAD_CAT_ID":"45688","TIME_SYSTEM":"UTC","MEAN_ELEMENT_THEORY":"SGP4","DECAY_DATE":null,"RCS_SIZE":"LARGE","APOAPSIS":"514.294","MEAN_ANOMALY":"152.5609","FILE":"3857581","ARG_OF_PERICENTER":"207.5150","ELEMENT_SET_NO":"999"},{"REV_AT_EPOCH":"15347","CENTER_NAME":"EARTH","SITE":"AFETR","CLASSIFICATION_TYPE":"U","OBJECT_ID":"2020-035AJ","OBJECT_NAME":"STARLINK-1413","EPHEMERIS_TYPE":"0","GP_ID":"227864236","TLE_LINE2":"2 45689  53.0526 290.7405 0001082 106.6989 253.4119 15.06399474153475","TLE_LINE1":"1 45689U 20035AJ  23070.02982776  .00007538  00000-0  52443-3 0  9999","EPOCH":"2023-03-11T00:42:57.118464","COUNTRY_CODE":"US","REF_FRAME":"TEME","OBJECT_TYPE":"PAYLOAD","ECCENTRICITY":"0.00010820","BSTAR":"0.00052443000000","INCLINATION":"53.0526","PERIOD":"95.592","MEAN_MOTION":"15.06399474","LAUNCH_DATE":"2020-06-04","MEAN_MOTION_DDOT":"0.0000000000000","PERIAPSIS":"546.466","APOAPSIS":"547.964","MEAN_ANOMALY":"253.4119","FILE":"3857715","ARG_OF_PERICENTER":"106.6989","ELEMENT_SET_NO":"999","DECAY_DATE":null,"RCS_SIZE":"LARGE","SEMIMAJOR_AXIS":"6925.350","TIME_SYSTEM":"UTC","MEAN_MOTION_DOT":"0.00007538","NORAD_CAT_ID":"45689","MEAN_ELEMENT_THEORY":"SGP4","RA_OF_ASC_NODE":"290.7405"},{"PERIAPSIS":"546.605","MEAN_MOTION_DDOT":"0.0000000000000","LAUNCH_DATE":"2020-06-04","MEAN_MOTION":"15.06400970","PERIOD":"95.592","BSTAR":"0.00057384000000","INCLINATION":"53.0551","ECCENTRICITY":"0.00008750","OBJECT_TYPE":"PAYLOAD","RA_OF_ASC_NODE":"290.7258","MEAN_ELEMENT_THEORY":"SGP4","NORAD_CAT_ID":"45690","MEAN_MOTION_DOT":"0.00008276","TIME_SYSTEM":"UTC","SEMIMAJOR_AXIS":"6925.346","RCS_SIZE":"LARGE","DECAY_DATE":null,"ELEMENT_SET_NO":"999","ARG_OF_PERICENTER":"83.7864","MEAN_ANOMALY":"276.3225","FILE":"3857719","APOAPSIS":"547.817","GP_ID":"227864292","EPHEMERIS_TYPE":"0","OBJECT_NAME":"STARLINK-1414","OBJECT_ID":"2020-035AK","CLASSIFICATION_TYPE":"U","SITE":"AFETR","CENTER_NAME":"EARTH","REV_AT_EPOCH":"15341","REF_FRAME":"TEME","COUNTRY_CODE":"US","EPOCH":"2023-03-11T00:52:12.729216","TLE_LINE1":"1 45690U 20035AK  23070.03625844  .00008276  00000-0  57384-3 0  9991","TLE_LINE2":"2 45690  53.0551 290.7258 0000875  83.7864 276.3225 15.06400970153417"},{"CLASSIFICATION_TYPE":"U","SITE":"AFETR","CENTER_NAME":"EARTH","REV_AT_EPOCH":"15401","GP_ID":"227886957","OBJECT_NAME":"STARLINK-1415","EPHEMERIS_TYPE":"0","OBJECT_ID":"2020-035AL","TLE_LINE1":"1 45691U 20035AL  23070.87759895  .00024395  00000-0  16491-2 0  9991","TLE_LINE2":"2 45691  53.0525 286.9338 0001219  72.3770 287.7352 15.06441909154019","REF_FRAME":"TEME","COUNTRY_CODE":"US","EPOCH":"2023-03-11T21:03:44.549280","BSTAR":"0.00164910000000","INCLINATION":"53.0525","ECCENTRICITY":"0.00012190","OBJECT_TYPE":"PAYLOAD","PERIAPSIS":"546.241","MEAN_MOTION_DDOT":"0.0000000000000","LAUNCH_DATE":"2020-06-04","MEAN_MOTION":"15.06441909","PERIOD":"95.589","RCS_SIZE":"LARGE","DECAY_DATE":null,"ELEMENT_SET_NO":"999","ARG_OF_PERICENTER":"72.3770","FILE":"3857847","MEAN_ANOMALY":"287.7352","APOAPSIS":"547.929","RA_OF_ASC_NODE":"286.9338","MEAN_ELEMENT_THEORY":"SGP4","MEAN_MOTION_DOT":"0.00024395","TIME_SYSTEM":"UTC","NORAD_CAT_ID":"45691","SEMIMAJOR_AXIS":"6925.220"},{"BSTAR":"0.00007993900000","INCLINATION":"53.0541","OBJECT_TYPE":"PAYLOAD","ECCENTRICITY":"0.00008790","MEAN_MOTION_DDOT":"0.0000000000000","PERIAPSIS":"546.628","LAUNCH_DATE":"2020-06-04","PERIOD":"95.593","MEAN_MOTION":"15.06392424","DECAY_DATE":null,"RCS_SIZE":"LARGE","ELEMENT_SET_NO":"999","ARG_OF_PERICENTER":"75.6373","APOAPSIS":"547.846","FILE":"3857581","MEAN_ANOMALY":"284.4713","RA_OF_ASC_NODE":"290.8331","MEAN_ELEMENT_THEORY":"SGP4","SEMIMAJOR_AXIS":"6925.372","MEAN_MOTION_DOT":"0.00000909","TIME_SYSTEM":"UTC","NORAD_CAT_ID":"45692","CLASSIFICATION_TYPE":"U","SITE":"AFETR","REV_AT_EPOCH":"15387","CENTER_NAME":"EARTH","GP_ID":"227853895","OBJECT_ID":"2020-035AM","EPHEMERIS_TYPE":"0","OBJECT_NAME":"STARLINK-1416","TLE_LINE1":"1 45692U 20035AM  23070.00771371  .00000909  00000-0  79939-4 0  9993","TLE_LINE2":"2 45692  53.0541 290.8331 0000879  75.6373 284.4713 15.06392424153876","REF_FRAME":"TEME","COUNTRY_CODE":"US","EPOCH":"2023-03-11T00:11:06.464544"},{"TLE_LINE1":"1 45693U 20035AN  23070.62326629  .00000239  00000-0  34933-4 0  9995","TLE_LINE2":"2 45693  53.0511 288.0768 0000852  86.4790 273.6296 15.06402243153968","REF_FRAME":"TEME","COUNTRY_CODE":"US","EPOCH":"2023-03-11T14:57:30.207456","CLASSIFICATION_TYPE":"U","SITE":"AFETR","CENTER_NAME":"EARTH","REV_AT_EPOCH":"15396","GP_ID":"227885956","OBJECT_NAME":"STARLINK-1417","EPHEMERIS_TYPE":"0","OBJECT_ID":"2020-035AN","RCS_SIZE":"LARGE","DECAY_DATE":null,"ELEMENT_SET_NO":"999","ARG_OF_PERICENTER":"86.4790","MEAN_ANOMALY":"273.6296","FILE":"3857847","APOAPSIS":"547.797","RA_OF_ASC_NODE":"288.0768","MEAN_ELEMENT_THEORY":"SGP4","MEAN_MOTION_DOT":"0.00000239","TIME_SYSTEM":"UTC","NORAD_CAT_ID":"45693","SEMIMAJOR_AXIS":"6925.342","INCLINATION":"53.0511","BSTAR":"0.00003493300000","ECCENTRICITY":"0.00008520","OBJECT_TYPE":"PAYLOAD","PERIAPSIS":"546.617","MEAN_MOTION_DDOT":"0.0000000000000","LAUNCH_DATE":"2020-06-04","MEAN_MOTION":"15.06402243","PERIOD":"95.592"},{"SITE":"AFETR","CENTER_NAME":"EARTH","REV_AT_EPOCH":"15397","CLASSIFICATION_TYPE":"U","GP_ID":"227852898","OBJECT_NAME":"STARLINK-1419","EPHEMERIS_TYPE":"0","OBJECT_ID":"2020-035AP","TLE_LINE2":"2 45694  53.0510 283.5379 0003940 195.7857 164.3016 15.19848743153975","TLE_LINE1":"1 45694U 20035AP  23070.00575260  .00073845  00000-0  33808-2 0  9996","EPOCH":"2023-03-11T00:08:17.024640","REF_FRAME":"TEME","COUNTRY_CODE":"US","ECCENTRICITY":"0.00039400","OBJECT_TYPE":"PAYLOAD","INCLINATION":"53.0510","BSTAR":"0.00338080000000","LAUNCH_DATE":"2020-06-04","MEAN_MOTION":"15.19848743","PERIOD":"94.746","PERIAPSIS":"503.587","MEAN_MOTION_DDOT":"0.0000000000000","ELEMENT_SET_NO":"999","ARG_OF_PERICENTER":"195.7857","MEAN_ANOMALY":"164.3016","FILE":"3857581","APOAPSIS":"509.012","RCS_SIZE":"LARGE","DECAY_DATE":null,"MEAN_ELEMENT_THEORY":"SGP4","NORAD_CAT_ID":"45694","MEAN_MOTION_DOT":"0.00073845","TIME_SYSTEM":"UTC","SEMIMAJOR_AXIS":"6884.434","RA_OF_ASC_NODE":"283.5379"}];
